HULIANWANG DIGUI 12F    
1 66000U 25231F   25309.23264300  .00000045  00000+0  12151-3 0  9995
2 66000  50.0057 275.4941 0005576 339.3668  20.7011 14.04999242  2843
HULIANWANG DIGUI 12G    
1 66001U 25231G   25309.23791211  .00000048  00000+0  12555-3 0  9993
2 66001  50.0024 275.5141 0006738 351.9689   8.1107 14.03866622  2845
HULIANWANG DIGUI 12H    
1 66002U 25231H   25309.23925723  .00000045  00000+0  12394-3 0  9999
2 66002  50.0062 275.5316 0007759 342.7327  17.3312 14.03811630  2842
HULIANWANG DIGUI 12J    
1 66003U 25231J   25309.23472373  .00000048  00000+0  12581-3 0  9999
2 66003  50.0037 275.5013 0005550 341.3408  18.7292 14.03906938  2849
CZ-8A R/B               
1 66004U 25231K   25309.23548884 -.00000035  00000+0  46525-4 0  9994
2 66004  50.0034 272.0516 0116672 155.0792 205.5819 14.30033657  2896
STARLINK-34849          
1 66005U 25232A   25309.25001157 -.01010652  00000+0 -19683-1 0  9995
2 66005  53.1729 324.4143 0001932  63.1380 101.9517 15.49648883  3512
STARLINK-35336          
1 66006U 25232B   25309.25001157  .00038986  00000+0  70671-3 0  9999
2 66006  53.1585 324.4095 0001466  81.7162  85.4650 15.49260716  3525
STARLINK-35196          
1 66007U 25232C   25309.25001157 -.00112804  00000+0 -20469-2 0  9993
2 66007  53.1586 324.4061 0001488  82.4703  86.6007 15.49344044  3529
STARLINK-35236          
1 66008U 25232D   25309.25001157  .00040723  00000+0  73742-3 0  9995
2 66008  53.1587 324.4018 0001847  57.6093 113.2956 15.49270364  3521
STARLINK-35276          
1 66009U 25232E   25309.25001157  .00041400  00000+0  74936-3 0  9995
2 66009  53.1587 324.3979 0001762  63.2389 109.5908 15.49275283  3513
STARLINK-35297          
1 66010U 25232F   25309.25001157  .00041530  00000+0  75175-3 0  9997
2 66010  53.1587 324.3943 0001829  62.5268 112.2152 15.49271940  3527
STARLINK-35256          
1 66011U 25232G   25309.25001157 -.00095610  00000+0 -17301-2 0  9994
2 66011  53.1585 324.3772 0001484  80.3113 102.1764 15.49340044  3529
STARLINK-35293          
1 66012U 25232H   25309.25001157 -.00098630  00000+0 -17857-2 0  9996
2 66012  53.1588 324.3891 0001462  73.9252 102.8134 15.49340639  3521
STARLINK-35307          
1 66013U 25232J   25309.25001157  .00012221  00000+0  22757-3 0  9993
2 66013  53.1586 324.3861 0002040  59.5906 118.9767 15.49292176  3450
STARLINK-35395          
1 66014U 25232K   25309.25001157  .00041749  00000+0  75576-3 0  9998
2 66014  53.1587 324.3821 0001777  62.2398 118.2445 15.49268636  3517
STARLINK-34622          
1 66015U 25232L   25309.25001157  .00043368  00000+0  78456-3 0  9998
2 66015  53.1587 324.3659 0001957  61.8214 126.3282 15.49268995  3415
STARLINK-35243          
1 66016U 25232M   25309.25001157  .00041803  00000+0  75670-3 0  9996
2 66016  53.1587 324.3697 0001917  62.1442 124.0853 15.49268939  3520
STARLINK-35398          
1 66017U 25232N   25309.25001157 -.01683606  00000+0 -33264-1 0  9994
2 66017  53.1729 324.3584 0001895  69.2952 122.6003 15.49792645  3441
STARLINK-35376          
1 66018U 25232P   25309.25001157  .00041887  00000+0  75817-3 0  9993
2 66018  53.1587 324.3619 0002010  60.7063 129.3603 15.49269808  3521
STARLINK-35382          
1 66019U 25232Q   25309.25001157  .00041994  00000+0  76020-3 0  9990
2 66019  53.1587 324.3733 0001888  62.0887 122.2302 15.49265071  3526
STARLINK-35430          
1 66020U 25232R   25309.25001157  .00043211  00000+0  78166-3 0  9999
2 66020  53.1588 324.3500 0002077  60.8601 134.9482 15.49272937  3519
STARLINK-35432          
1 66021U 25232S   25309.25001157  .00043285  00000+0  78304-3 0  9995
2 66021  53.1587 324.3538 0001908  61.5915 132.3024 15.49271000  3444
STARLINK-35340          
1 66022U 25232T   25309.25001157 -.00098881  00000+0 -17904-2 0  9998
2 66022  53.1588 324.3452 0001481  78.4735 119.3535 15.49338239  3512
STARLINK-35394          
1 66023U 25232U   25309.25001157 -.00098555  00000+0 -17842-2 0  9998
2 66023  53.1585 324.3412 0001377  84.9862 114.7517 15.49341713  3513
STARLINK-35410          
1 66024U 25232V   25309.25001157 -.00091667  00000+0 -16578-2 0  9991
2 66024  53.1585 324.3333 0001604  80.1199 123.4567 15.49335810  3513
STARLINK-35280          
1 66025U 25232W   25309.25001157 -.00105313  00000+0 -19088-2 0  9995
2 66025  53.1585 324.3370 0001473  76.1579 125.5011 15.49341183  3456
STARLINK-34812          
1 66026U 25232X   25309.25001157  .00044115  00000+0  79768-3 0  9998
2 66026  53.1588 324.3300 0001984  58.2935 147.0954 15.49275480  3469
STARLINK-35341          
1 66027U 25232Y   25309.25001157 -.02101838  00000+0 -31166-1 0  9997
2 66027  53.1594 324.0579 0001156  86.7885 252.6529 15.57801230  3517
STARLINK-35339          
1 66028U 25232Z   25309.25001157 -.02105898  00000+0 -31229-1 0  9998
2 66028  53.1593 324.0541 0001175  87.2614 254.0938 15.57804936  3452
STARLINK-35399          
1 66029U 25232AA  25309.25001157 -.02106572  00000+0 -31239-1 0  9990
2 66029  53.1593 324.0507 0001138  86.8816 256.3886 15.57806295  3450
STARLINK-35431          
1 66030U 25232AB  25309.25001157 -.02102794  00000+0 -31180-1 0  9999
2 66030  53.1591 324.0457 0001198  84.4610 260.7278 15.57802991  3459
STARLINK-35326          
1 66031U 25232AC  25309.25001157 -.02104535  00000+0 -31208-1 0  9996
2 66031  53.1592 324.0424 0001159  87.1685 259.9376 15.57803997  3517
STARLINK-35311          
1 66032U 25232AD  25309.25001157 -.02111990  00000+0 -31326-1 0  9991
2 66032  53.1594 324.0377 0001142  84.2578 264.7623 15.57809654  3513
QIANFAN-91              
1 66033U 25233A   25309.28815821  .00000716  00000+0  29420-3 0  9990
2 66033  88.9951  66.3425 0016497 149.8128 210.4019 14.25916891  2708
QIANFAN-92              
1 66034U 25233B   25309.21725979  .00000711  00000+0  29172-3 0  9997
2 66034  88.9950  66.3503 0016083 152.5206 207.6841 14.25998585  2693
QIANFAN-93              
1 66035U 25233C   25309.28629717  .00000721  00000+0  29563-3 0  9993
2 66035  88.9951  66.3422 0015413 151.6393 208.5643 14.26082339  2702
QIANFAN-94              
1 66036U 25233D   25309.28601822  .00000722  00000+0  29579-3 0  9999
2 66036  88.9951  66.3422 0015479 151.3030 208.9018 14.26107503  2701
QIANFAN-95              
1 66037U 25233E   25309.28567353  .00000720  00000+0  29445-3 0  9990
2 66037  88.9951  66.3421 0015438 151.6975 208.5061 14.26152664  2709
QIANFAN-96              
1 66038U 25233F   25309.28541396  .00000707  00000+0  28924-3 0  9996
2 66038  88.9951  66.3420 0016078 153.6031 206.5985 14.26156508  2709
QIANFAN-97              
1 66039U 25233G   25309.28531693  .00000709  00000+0  29004-3 0  9998
2 66039  88.9951  66.3420 0015646 153.0601 207.1408 14.26162428  2702
QIANFAN-98              
1 66040U 25233H   25309.28506168  .00000695  00000+0  28392-3 0  9992
2 66040  88.9952  66.3421 0015287 151.8027 208.3998 14.26183846  2709
QIANFAN-99              
1 66041U 25233J   25309.14460373  .00000628  00000+0  25586-3 0  9993
2 66041  88.9951  66.3581 0015416 151.3665 208.8378 14.26198736  2681
QIANFAN-100             
1 66042U 25233K   25309.28484785  .00000704  00000+0  28765-3 0  9999
2 66042  88.9951  66.3421 0015874 152.6047 207.5987 14.26214955  2708
QIANFAN-101             
1 66043U 25233L   25309.28229325  .00000461  00000+0  18450-3 0  9997
2 66043  88.9952  66.3416 0015816 150.8366 209.3714 14.26635472  2703
QIANFAN-102             
1 66044U 25233M   25309.28474130  .00000725  00000+0  29619-3 0  9996
2 66044  88.9951  66.3419 0016239 152.7016 207.5035 14.26219172  2700
QIANFAN-103             
1 66045U 25233N   25309.28443903  .00000724  00000+0  29558-3 0  9992
2 66045  88.9952  66.3421 0015632 151.4758 208.7295 14.26248390  2705
QIANFAN-104             
1 66046U 25233P   25309.28421699  .00000729  00000+0  29774-3 0  9996
2 66046  88.9952  66.3420 0015613 153.7274 206.4715 14.26269136  2705
QIANFAN-105             
1 66047U 25233Q   25309.28383363  .00000707  00000+0  28818-3 0  9996
2 66047  88.9951  66.3417 0015800 153.8385 206.3610 14.26327447  2706
QIANFAN-106             
1 66048U 25233R   25309.28385915  .00000700  00000+0  28537-3 0  9993
2 66048  88.9952  66.3419 0015678 153.5307 206.6691 14.26310798  2707
QIANFAN-107             
1 66049U 25233S   25309.28365505  .00000717  00000+0  29233-3 0  9999
2 66049  88.9951  66.3417 0016463 151.6973 208.5118 14.26339725  2702
QIANFAN-108             
1 66050U 25233T   25309.28339476  .00000700  00000+0  28494-3 0  9999
2 66050  88.9950  66.3417 0016427 153.3824 206.8217 14.26352727  2705
CZ-6A R/B               
1 66051U 25233U   25309.23103277  .00000401  00000+0  80741-4 0  9995
2 66051  89.0290  66.2770 0085757  55.1308 305.7927 14.57013291  2750
2025-234A               
1 66053U 25234A   25309.22083193  .00028804  00000+0  12422-2 0  9997
2 66053  97.4617  14.7569 0014536 225.6971 134.3074 15.22410390  2606
2025-234B               
1 66054U 25234B   25309.22919039  .00007380  00000+0  33325-3 0  9997
2 66054  97.5046  14.8354 0014078 217.4480 142.5776 15.21187290  2601
2025-234C               
1 66055U 25234C   25309.22788593  .00006342  00000+0  28543-3 0  9990
2 66055  97.4570  14.7369 0014733 219.6360 140.3799 15.21349272  2608
2025-234D               
1 66056U 25234D   25309.22620300  .00019245  00000+0  84812-3 0  9999
2 66056  97.4548  14.7346 0014744 218.7904 141.2274 15.21753818  2596
2025-234E               
1 66057U 25234E   25308.91830998  .00320849  00000+0  10192-1 0  9994
2 66057  97.4863  14.6084 0014847 232.3423 127.6471 15.31192919  2561
STARLINK-35552          
1 66058U 25235A   25309.25001157  .00079249  00000+0  61507-3 0  9994
2 66058  53.1559 106.6282 0000946  54.3507 248.5877 15.71138418  3859
STARLINK-35560          
1 66059U 25235B   25309.25001157 -.01901514  00000+0 -19710-1 0  9994
2 66059  53.1589 106.6390 0000847  71.6970 226.3558 15.67090454  3851
